[{"OBJECT_NAME":"TDRS 11","OBJECT_ID":"2013-004A","EPOCH":"2026-04-04T05:06:46.077120","MEAN_MOTION":1.00273267,"ECCENTRICITY":0.00044769,"INCLINATION":3.4128,"RA_OF_ASC_NODE":29.9365,"ARG_OF_PERICENTER":356.8492,"MEAN_ANOMALY":68.0077,"EPHEMERIS_TYPE":0,"CLASSIFICATION_TYPE":"U","NORAD_CAT_ID":39070,"ELEMENT_SET_NO":999,"REV_AT_EPOCH":4595,"BSTAR":0,"MEAN_MOTION_DOT":8.0e-7,"MEAN_MOTION_DDOT":0},{"OBJECT_NAME":"TDRS 12","OBJECT_ID":"2014-004A","EPOCH":"2026-04-04T06:54:50.029920","MEAN_MOTION":1.00277817,"ECCENTRICITY":0.00027408,"INCLINATION":3.9061,"RA_OF_ASC_NODE":17.8096,"ARG_OF_PERICENTER":258.5349,"MEAN_ANOMALY":338.943,"EPHEMERIS_TYPE":0,"CLASSIFICATION_TYPE":"U","NORAD_CAT_ID":39504,"ELEMENT_SET_NO":999,"REV_AT_EPOCH":4353,"BSTAR":0,"MEAN_MOTION_DOT":-2.69e-6,"MEAN_MOTION_DDOT":0},{"OBJECT_NAME":"GPM-CORE","OBJECT_ID":"2014-009C","EPOCH":"2026-04-04T06:43:21.583488","MEAN_MOTION":15.44305318,"ECCENTRICITY":0.00129818,"INCLINATION":64.9734,"RA_OF_ASC_NODE":195.743,"ARG_OF_PERICENTER":254.8351,"MEAN_ANOMALY":105.1354,"EPHEMERIS_TYPE":0,"CLASSIFICATION_TYPE":"U","NORAD_CAT_ID":39574,"ELEMENT_SET_NO":999,"REV_AT_EPOCH":68639,"BSTAR":0.00048031125,"MEAN_MOTION_DOT":0.0002213,"MEAN_MOTION_DDOT":0},{"OBJECT_NAME":"MMS 1","OBJECT_ID":"2015-011A","EPOCH":"2026-04-04T06:00:02.000160","MEAN_MOTION":0.2833862,"ECCENTRICITY":0.83864416,"INCLINATION":71.1346,"RA_OF_ASC_NODE":349.8029,"ARG_OF_PERICENTER":165.8179,"MEAN_ANOMALY":316.5416,"EPHEMERIS_TYPE":0,"CLASSIFICATION_TYPE":"U","NORAD_CAT_ID":40482,"ELEMENT_SET_NO":999,"REV_AT_EPOCH":130,"BSTAR":0,"MEAN_MOTION_DOT":-1.255e-5,"MEAN_MOTION_DDOT":0},{"OBJECT_NAME":"MMS 2","OBJECT_ID":"2015-011B","EPOCH":"2026-04-04T06:00:02.000160","MEAN_MOTION":0.28338619,"ECCENTRICITY":0.83871894,"INCLINATION":71.1348,"RA_OF_ASC_NODE":349.8051,"ARG_OF_PERICENTER":165.8239,"MEAN_ANOMALY":316.5264,"EPHEMERIS_TYPE":0,"CLASSIFICATION_TYPE":"U","NORAD_CAT_ID":40483,"ELEMENT_SET_NO":999,"REV_AT_EPOCH":130,"BSTAR":0,"MEAN_MOTION_DOT":-1.255e-5,"MEAN_MOTION_DDOT":0},{"OBJECT_NAME":"MMS 3","OBJECT_ID":"2015-011C","EPOCH":"2026-04-04T06:00:02.000160","MEAN_MOTION":0.28338575,"ECCENTRICITY":0.83864438,"INCLINATION":71.1374,"RA_OF_ASC_NODE":349.8097,"ARG_OF_PERICENTER":165.8182,"MEAN_ANOMALY":316.5312,"EPHEMERIS_TYPE":0,"CLASSIFICATION_TYPE":"U","NORAD_CAT_ID":40484,"ELEMENT_SET_NO":999,"REV_AT_EPOCH":130,"BSTAR":0,"MEAN_MOTION_DOT":-1.255e-5,"MEAN_MOTION_DDOT":0},{"OBJECT_NAME":"MMS 4","OBJECT_ID":"2015-011D","EPOCH":"2026-04-04T06:00:02.000160","MEAN_MOTION":0.2833857,"ECCENTRICITY":0.83859728,"INCLINATION":71.1349,"RA_OF_ASC_NODE":349.805,"ARG_OF_PERICENTER":165.8256,"MEAN_ANOMALY":316.518,"EPHEMERIS_TYPE":0,"CLASSIFICATION_TYPE":"U","NORAD_CAT_ID":40485,"ELEMENT_SET_NO":999,"REV_AT_EPOCH":130,"BSTAR":0,"MEAN_MOTION_DOT":-1.255e-5,"MEAN_MOTION_DDOT":0},{"OBJECT_NAME":"TDRS 13","OBJECT_ID":"2017-047A","EPOCH":"2026-04-04T04:10:28.975008","MEAN_MOTION":1.00272422,"ECCENTRICITY":0.00120501,"INCLINATION":3.4357,"RA_OF_ASC_NODE":0.8557,"ARG_OF_PERICENTER":97.1245,"MEAN_ANOMALY":145.6556,"EPHEMERIS_TYPE":0,"CLASSIFICATION_TYPE":"U","NORAD_CAT_ID":42915,"ELEMENT_SET_NO":999,"REV_AT_EPOCH":3160,"BSTAR":0,"MEAN_MOTION_DOT":-1.0e-6,"MEAN_MOTION_DDOT":0},{"OBJECT_NAME":"NOAA 20 (JPSS-1)","OBJECT_ID":"2017-073A","EPOCH":"2026-04-04T06:33:49.220640","MEAN_MOTION":14.19543143,"ECCENTRICITY":0.00020333,"INCLINATION":98.7724,"RA_OF_ASC_NODE":34.411,"ARG_OF_PERICENTER":103.1408,"MEAN_ANOMALY":256.9995,"EPHEMERIS_TYPE":0,"CLASSIFICATION_TYPE":"U","NORAD_CAT_ID":43013,"ELEMENT_SET_NO":999,"REV_AT_EPOCH":43398,"BSTAR":8.6006958e-5,"MEAN_MOTION_DOT":1.37e-6,"MEAN_MOTION_DDOT":0}]
